INS-2TD                 
1 51658U 22013C   24190.11569903  .00048412  00000+0  93473-3 0  9990
2 51658  97.5158 214.1761 0007661  91.4728 268.7399 15.47629414133234
GAOFEN-12 03            
1 52912U 22069A   24190.16134903  .00002035  00000+0  26789-3 0  9995
2 52912  97.9087  80.9206 0005959  79.4662 280.7221 14.81241860109713
SWOT                    
1 54754U 22173A   24189.87635053  .00000096  00000+0  66721-4 0  9991
2 54754  77.6106 272.8024 0000129 180.5265 179.5886 14.00167477 79881
GAOFEN-12 04            
1 57654U 23123A   24190.12815100  .00001956  00000+0  25820-3 0  9992
2 57654  97.9099 107.3055 0006269 117.3815 242.8036 14.81166901 47724
PARS 1                  
1 59065U 24039Q   24189.89066201  .00007254  00000+0  28175-3 0  9992
2 59065  97.3948 151.6609 0015995 130.7833 229.4796 15.26254477 19731
RESURS-P 4              
1 59371U 24061A   24190.08005523  .00004818  00000+0  15339-3 0  9991
2 59371  97.1871 142.5608 0002749  81.4948 278.6607 15.33031305 15121
ALOS-4 (DAICHI-4)       
1 60182U 24123A   24184.39511773 -.00000054  00000+0  00000+0 0  9992
2 60182  97.8729 280.8418 0002642  99.1801 302.5909 14.86041878   188
